[{"OBJECT_NAME":"IRIDIUM 179","OBJECT_ID":"2023-068W","EPOCH":"2026-03-09T22:21:59.547744","MEAN_MOTION":14.80238607,"ECCENTRICITY":0.00023232,"INCLINATION":86.672,"RA_OF_ASC_NODE":75.5287,"ARG_OF_PERICENTER":95.2951,"MEAN_ANOMALY":264.8536,"EPHEMERIS_TYPE":0,"CLASSIFICATION_TYPE":"U","NORAD_CAT_ID":56730,"ELEMENT_SET_NO":999,"REV_AT_EPOCH":15168,"BSTAR":8.1626328e-5,"MEAN_MOTION_DOT":6.46e-6,"MEAN_MOTION_DDOT":0},{"OBJECT_NAME":"KUIPER-00169","OBJECT_ID":"2025-217W","EPOCH":"2026-03-09T07:45:52.976448","MEAN_MOTION":14.79855195,"ECCENTRICITY":8.038e-5,"INCLINATION":51.9022,"RA_OF_ASC_NODE":34.7308,"ARG_OF_PERICENTER":97.969,"MEAN_ANOMALY":262.1363,"EPHEMERIS_TYPE":0,"CLASSIFICATION_TYPE":"U","NORAD_CAT_ID":65782,"ELEMENT_SET_NO":999,"REV_AT_EPOCH":2496,"BSTAR":0.00078840937,"MEAN_MOTION_DOT":5.783e-5,"MEAN_MOTION_DDOT":0}]
